#dP2024  7 31  0  0  0.00000000      96 __u+U IGS20 FIT  IAC
## 2325 259200.00000000   900.00000000 60522 0.0000000000000
+   54   G02G03G04G05G06G07G08G09G10G11G12G13G14G15G16G17G18
+        G19G20G21G22G23G24G25G26G27G28G29G30G31G32R01R02R03
+        R04R05R07R08R09R11R12R13R14R15R16R17R18R19R20R21R22
+        R24R25R26  0  0  0  0  0  0  0  0  0  0  0  0  0  0
+          0  0  0  0  0  0  0  0  0  0  0  0  0  0  0  0  0
++         6  5  6  6  5  6  7  6  5  6  6  7  5  8  6  5  7
++         6  7  6  6  8  7  6  5  6  6  5  6  5  6  8  7  7
++         7  8  7  7  5  6  8  3  6  5  6  7  7  7  7  5  7
++         7  5  7  0  0  0  0  0  0  0  0  0  0  0  0  0  0
++         0  0  0  0  0  0  0  0  0  0  0  0  0  0  0  0  0
%c M  cc GPS ccc cccc cccc cccc cccc ccccc ccccc ccccc ccccc
%c cc cc ccc ccc cccc cccc cccc cccc ccccc ccccc ccccc ccccc
%f  0.0000000  0.000000000  0.00000000000  0.000000000000000
%f  0.0000000  0.000000000  0.00000000000  0.000000000000000
%i    0    0    0    0      0      0      0      0         0
%i    0    0    0    0      0      0      0      0         0
/* INFORMATION & ANALYSIS CENTER (IAC)      ULTRA-RAPID DATA
/* S/V CLOCKS ARE ALIGNED TO GNSS TIME                      
/* G:C1WC2W R:C1PC2P E:C1XC5X C:C2IC6I J:C1CC2S             
/* PCV:IGS20_2317 OL/AL:FES2004  NONE     YN ORB:CoN CLK:CoN
*  2024 07 31 17 30  0.00000000
PG02 -11026.238005  20295.001487 -12355.963883   -388.183709
PG03   1736.366636  16290.123279 -21097.685167    481.440217
PG04  -1214.643760  26192.798481  -3721.063095    414.995077
PG05  14974.939306  -8617.541388  20010.086391   -181.636182
PG06  21072.690491  -1505.296912 -16101.388652    127.591483
PG07   7186.667110  14045.882315  21862.853784    -59.533813
PG08  -7512.396534  20937.056443  14074.006842    297.365586
PG09   7796.203336  24296.465341   7180.764073    295.404120
PG10 -24495.704578 -10642.006599  -1147.933595    -80.920360
PG11  23453.452971 -11829.465790  -3676.545779   -714.288297
PG12   2520.321911 -15759.970823 -21515.332408   -526.720966
PG13  13233.247140 -13574.438782  18283.183918    668.030299
PG14  23067.393953  13230.241334   2230.698221    461.750780
PG15   4668.656067 -22087.352926  13337.511232    187.353841
PG16 -18824.902581   3811.079598  18197.576073   -221.303742
PG17  12965.078163  13561.667133 -18315.977170    665.659076
PG18  -7117.537882 -13166.415122  21947.290849   -642.044638
PG19  14893.157178   4531.087938 -21727.513785    518.221437
PG20  22618.194738  -3783.158011  13331.988329    372.171744
PG21 -14974.078286  19694.483737  -7658.879922    105.621721
PG22  23938.721185   9346.031364  -5651.661371    -46.065237
PG23 -18732.653455 -15808.301043  10515.927645    286.692965
PG24  11579.543759 -21008.503033 -11371.710256   -485.096170
PG25  -9861.588717 -17977.690613 -17358.303836    498.984312
PG26 -25329.583227  -3134.694097   7853.863987    109.571585
PG27 -13047.133020  10763.269194  20079.396661    -32.282103
PG28 -19992.249246   -283.966607 -17494.291398   -354.077033
PG29  -3213.674565 -25939.727728   4258.859008   -586.652984
PG30  16856.400626   6057.264169  19839.234555   -348.165861
PG31 -23905.216463   8724.309837  -8494.941222   -226.308898
PG32 -14409.657505 -11438.238277 -19016.179391   -608.944137
PR01 -12982.625441 -21770.953814  -2798.983646     93.079771
PR02 -14495.153887 -11188.828301 -17750.326276    -23.922560
PR03  -8749.654035   6591.795632 -22990.270781    104.771088
PR04   1643.577227  20101.153283 -15583.350855    247.756757
PR05  11018.512538  22991.757291    194.808791    135.359925
PR07   8377.471851  -7345.601829  22986.044256     87.843626
PR08  -1869.278373 -20267.604943  15454.121777     -6.236077
PR09  24874.221022   3246.490561   4891.441532    200.798943
PR11   8449.986952  -9963.184530 -21897.192185     16.407056
PR12 -12962.560066 -10150.458525 -19456.014127     43.090563
PR13 -23901.733161  -4798.370436  -7514.333276 999999.999999
PR14 -21951.495816   4742.089590  12091.930698     26.746228
PR15  -6680.225582  10378.133611  22347.012360     77.321027
PR16  12818.878666  10033.246689  19668.442157     27.864391
PR17 -16735.472330  16449.008258  10068.392660    109.493926
PR18 -11653.644989  21755.743444  -6354.064306    154.736710
PR19  -2401.059678  17214.741244 -18678.097780   -285.893455
PR20  12492.662977   -134.582237 -22239.009341   -117.003965
PR21  16852.218987 -15949.169259 -10558.240296   -122.165307
PR22  11408.369702 -21557.743741   7502.425093     78.480182
PR24 -13115.836140    946.704864  21876.108087    -65.952319
PR25  17418.230615 -15887.863338  -9701.955182    -98.959368
PR26  -1069.511485 -19447.604670  16475.552243      7.221163
*  2024 07 31 17 45  0.00000000
PG02 -12188.420191  21015.120871  -9880.735232   -388.176870
PG03   -494.586160  15369.526791 -21836.705108    481.454290
PG04  -1508.777507  25626.334579  -6514.510078    415.001956
PG05  17043.386670  -7738.702322  18689.651426   -181.636970
PG06  19557.584526   -272.976673 -17957.045217    127.570168
PG07   5252.115024  15425.543879  21428.494741    -59.527508
PG08  -8008.991675  19230.680114  16112.499924    297.379375
PG09   7640.960678  25001.818887   4428.707067    295.417918
PG10 -24422.555916 -10786.001995   1735.164901    -80.929722
PG11  23104.450898 -11303.890926  -6467.859075   -714.293779
PG12   4693.203220 -14683.762229 -21909.911791   -526.723563
PG13  13309.087007 -11352.969674  19693.292142    668.032381
PG14  22581.039966  13315.093345   5001.792477    461.758665
PG15   5391.492577 -20486.921058  15399.703256    187.357793
PG16 -20551.473435   2733.538774  16514.381014   -221.294115
PG17  12932.107538  15645.682930 -16623.742068    665.650831
PG18  -5081.724033 -14593.430511  21588.975697   -642.047819
PG19  14896.819106   6939.630375 -21111.679116    518.226156
PG20  23918.371278  -3243.615301  10972.876208    372.171136
PG21 -15777.640306  19980.686413  -4866.711903    105.619787
PG22  24278.978666   9845.587719  -2834.912840    -46.069054
PG23 -17438.686642 -15464.079686  12955.264594    286.700848
PG24  12616.547769 -21535.764252  -8884.008460   -485.097100
PG25  -7948.229795 -17349.743245 -18915.738961    498.984545
PG26 -25957.132051  -3659.577428   5215.196312    109.565012
PG27 -13453.913951   8379.273152  20954.090431    -32.282734
PG28 -18448.659062  -1697.583629 -19042.273759   -354.090907
PG29  -2993.039368 -26279.711016   1399.958295   -586.651187
PG30  15076.648096   7507.895025  20737.800499   -348.159832
PG31 -23153.444374   7922.989968 -11015.482975   -226.308684
PG32 -14555.738553 -13558.044278 -17484.260318   -608.941948
PR01 -13183.494925 -21825.631399    410.129399     93.080275
PR02 -15552.338151 -12960.391588 -15520.779021    -23.922314
PR03 -10090.045630   4075.185395 -23029.682726    104.771799
PR04    800.199101  18209.401928 -17812.859577    247.757861
PR05  11097.607963  22752.863243  -3028.754630    135.360108
PR07   9699.766591  -4835.845348  23126.769266     87.844074
PR08  -1020.118728 -18415.436957  17694.197723     -6.236020
PR09  24087.915438   3154.376120   7941.543016    200.800554
PR11  11081.563870  -9960.238665 -20694.367162     16.406062
PR12 -10465.071523 -10019.065539 -20965.877106     43.091208
PR13 -22795.864567  -4661.711925 -10461.062114 999999.999999
PR14 -23268.241360   4817.570755   9263.200971     26.746637
PR15  -9371.317344  10339.791260  21375.265307     77.320595
PR16  10306.912467   9900.879397  21153.977779     27.864416
PR17 -15837.488388  15343.235797  12872.799196    109.496534
PR18 -11809.032407  22359.974016  -3181.725024    154.738078
PR19  -3523.387616  19085.783617 -16563.023663   -285.894819
PR20  10851.777506   2129.629893 -22983.446808   -117.002912
PR21  15908.611111 -14800.298079 -13334.120809   -122.168224
PR22  11701.681253 -22242.963424   4399.188928     78.474008
PR24 -11616.507547  -1354.294546  22685.524050    -65.953313
PR25  16535.715028 -14829.118211 -12515.633365    -98.960800
PR26   -138.958090 -17494.582114  18570.107581      7.222819
EOF
